INTELSAT 10 (IS-10)     
1 26766U 01019A   25342.53517186 -.00000274  00000+0  00000+0 0  9992
2 26766   8.6199  61.1985 0007852 221.9209 143.9126  0.99078973 43699
INTELSAT 902 (IS-902)   
1 26900U 01039A   25335.70832537 -.00000263  00000+0  00000+0 0  9993
2 26900   5.6187  74.2002 0004309 175.1190  26.3816  1.00270327 88713
INTELSAT 904 (IS-904)   
1 27380U 02007A   25342.63192441 -.00000226  00000+0  00000+0 0  9994
2 27380   6.4433  71.4765 0001612 211.5706 350.5417  1.00268358 87175
DIRECTV 5 (TEMPO 1)     
1 27426U 02023A   25342.51153441 -.00000056  00000+0  00000+0 0  9998
2 27426   4.3913  77.7003 0003918 198.8983 234.9531  1.00271860 86213
INTELSAT 905 (IS-905)   
1 27438U 02027A   25342.50019985  .00000094  00000+0  00000+0 0  9999
2 27438   6.2751  72.1034 0002895 189.9537 218.3132  1.00271271 49453
GALAXY 3C (G-3C)        
1 27445U 02030A   25342.51785618 -.00000151  00000+0  00000+0 0  9990
2 27445   3.2536  80.5473 0001138  99.4242 349.1178  1.00270867 44588
INTELSAT 906 (IS-906)   
1 27513U 02041A   25342.36550937  .00000014  00000+0  00000+0 0  9992
2 27513   5.3176  75.2836 0006075 189.3726   8.4369  1.00270756 85110
GALAXY 13 (HORIZONS-1)  
1 27954U 03044A   25342.60843758  .00000135  00000+0  00000+0 0  9992
2 27954   0.9248  86.5245 0002029 160.3438 259.7902  1.00269697 44664
INTELSAT 10-02          
1 28358U 04022A   25342.56666399 -.00000008  00000+0  00000+0 0  9997
2 28358   0.0328  73.0267 0001220 218.2082 349.3587  1.00272420 78646
XM-3 (RHYTHM)           
1 28626U 05008A   25342.59836193 -.00000254  00000+0  00000+0 0  9997
2 28626   0.1640  81.1442 0001315 262.6864  83.1621  0.98953996 40701
DIRECTV 8               
1 28659U 05019A   25342.58218470  .00000003  00000+0  00000+0 0  9997
2 28659   0.0170 357.8351 0003207 263.9766 266.3148  1.00271702 75162
GALAXY 28 (G-28)        
1 28702U 05022A   25342.51982083 -.00000186  00000+0  00000+0 0  9994
2 28702   2.8078  81.3310 0002667 178.1608 276.4849  1.00271307 50066
GALAXY 16 (G-16)        
1 29236U 06023A   25342.51543964 -.00000125  00000+0  00000+0 0  9993
2 29236   0.0097  98.0987 0002910 152.9659 273.0004  1.00272712 71062
DIRECTV 9S              
1 29494U 06043A   25342.51505788 -.00000111  00000+0  00000+0 0  9998
2 29494   1.9291  83.2497 0003201 176.8232 261.6554  1.00270638 49470
GALAXY 17 (G-17)        
1 31307U 07016B   25342.52121304 -.00000205  00000+0  00000+0 0  9998
2 31307   2.4892  82.3294 0006122 161.5808 296.2543  1.00272606 67894
DIRECTV 10              
1 31862U 07032A   25342.54647052 -.00000101  00000+0  00000+0 0  9992
2 31862   0.0146 154.5451 0000470  77.9506 299.0032  1.00273681 43687
INTELSAT 11 (IS-11)     
1 32253U 07044B   25342.57966493  .00000067  00000+0  00000+0 0  9996
2 32253   3.0693  81.0198 0009160 164.1911 285.0546  0.99047596 66566
HORIZONS-2              
1 32388U 07063B   25342.52576861 -.00000252  00000+0  00000+0 0  9994
2 32388   2.1104  83.0022 0005051 186.0895 283.9362  1.00270706 65903
DIRECTV 11              
1 32729U 08013A   25342.51543958 -.00000124  00000+0  00000+0 0  9997
2 32729   0.0325 186.1043 0000634  41.6309 296.1535  1.00277541 43683
GALAXY 18 (G-18)        
1 32951U 08024A   25342.50607383  .00000027  00000+0  00000+0 0  9999
2 32951   0.0154 290.3666 0003193 329.6467 236.6719  1.00271881 43949
INTELSAT 25 (IS-25)     
1 33153U 08034A   25342.48927016 -.00000222  00000+0  00000+0 0  9998
2 33153   2.2167  82.6928 0005418 183.3941 316.0513  1.00270434 63781
GALAXY 19 (G-19)        
1 33376U 08045A   25342.51614674 -.00000137  00000+0  00000+0 0  9999
2 33376   0.0166 308.7127 0003392 322.4993 255.1198  1.00269772 62995
FM-5                    
1 35493U 09034A   25342.54976388 -.00000198  00000+0  00000+0 0  9993
2 35493   0.0216 286.7694 0000853 252.2013  10.3592  1.00270908 44733
INTELSAT 14 (IS-14)     
1 36097U 09064A   25342.41525634 -.00000271  00000+0  00000+0 0  9999
2 36097   0.0102 331.4392 0002702 292.4176 278.0672  1.00270625 58690
INTELSAT 15 (IS-15)     
1 36106U 09067A   25342.58373742 -.00000183  00000+0  00000+0 0  9994
2 36106   0.0105  16.3415 0002469 246.8045 109.7393  1.00270213 39318
DIRECTV 12              
1 36131U 09075A   25342.52529490 -.00000101  00000+0  00000+0 0  9998
2 36131   0.0407 139.7381 0000451 197.4259 186.7516  1.00271962 44646
INTELSAT 16 (IS-16)     
1 36397U 10006A   25342.52449564 -.00000242  00000+0  00000+0 0  9997
2 36397   0.0174 305.6141 0002319 315.2486 289.2876  1.00270460 57741
XM-5                    
1 37185U 10053A   25342.50905329 -.00000021  00000+0  00000+0 0  9994
2 37185   0.0649 272.5719 0001792 247.2018 345.8143  1.00270207 55570
INTELSAT 17 (IS-17)     
1 37238U 10065B   25342.57992407  .00000000  00000+0  00000+0 0  9992
2 37238   0.0172 280.7680 0002445 337.6714  93.9259  1.00272258 51338
INTELSAT 28 (IS-28)     
1 37392U 11016A   25342.41785637 -.00000223  00000+0  00000+0 0  9996
2 37392   1.3133  85.1050 0003987 177.0806 293.9628  1.00271812 51379
INTELSAT 18 (IS-18)     
1 37834U 11056A   25342.62231957  .00000055  00000+0  00000+0 0  9997
2 37834   0.0184 338.9815 0002097 283.8407 218.8358  1.00270991 51906
INTELSAT 22 (IS-22)     
1 38098U 12011A   25342.58113741 -.00000056  00000+0  00000+0 0  9999
2 38098   0.0198 308.1155 0001689 324.9720  85.8152  1.00267912  5273
INTELSAT 19 (IS-19)     
1 38356U 12030A   25342.59968419 -.00000054  00000+0  00000+0 0  9996
2 38356   0.0101 328.5495 0003567 296.8794 194.0643  1.00271413 48548
INTELSAT 20 (IS-20)     
1 38740U 12043A   25342.43770316 -.00000023  00000+0  00000+0 0  9993
2 38740   0.0021  74.2164 0002741 104.9934 124.3222  1.00273639 48835
INTELSAT 21 (IS-21)     
1 38749U 12045A   25342.48398346 -.00000283  00000+0  00000+0 0  9996
2 38749   0.0156   8.0468 0002202 245.7686 299.9134  1.00270654 48616
INTELSAT 23 (IS-23)     
1 38867U 12057A   25342.48502346 -.00000282  00000+0  00000+0 0  9996
2 38867   0.0402  92.6513 0001933 110.5856 355.8774  1.00265555 48042
FM-6                    
1 39360U 13058A   25342.55231979 -.00000014  00000+0  00000+0 0  9999
2 39360   0.0119  96.1147 0003190  75.3013 348.8342  1.00267110 44169
INTELSAT 30 (IS-30)     
1 40271U 14062A   25342.51746481 -.00000148  00000+0  00000+0 0  9991
2 40271   0.0126  12.2657 0001201  75.3577  81.1316  1.00270930  4877
DIRECTV 14              
1 40333U 14078B   25342.51543946 -.00000124  00000+0  00000+0 0  9992
2 40333   0.0167 332.3244 0000481 251.5632 299.9766  1.00274320 40132
DIRECTV 15              
1 40663U 15026A   25342.55481104 -.00000100  00000+0  00000+0 0  9997
2 40663   0.0367  78.2535 0000316 202.6334 253.5446  1.00268970 38550
SKY MEXICO-1            
1 40664U 15026B   25342.52392641 -.00000232  00000+0  00000+0 0  9998
2 40664   0.0221  53.0322 0002769 219.8086 274.5373  1.00270912 38543
INTELSAT 34 (IS-34)     
1 40874U 15039A   25342.55574392 -.00000283  00000+0  00000+0 0  9999
2 40874   0.0141 304.4287 0000805 233.4729  44.2351  1.00271129 37712
INTELSAT 31 (IS-31)     
1 41581U 16035A   25342.51686610 -.00000148  00000+0  00000+0 0  9995
2 41581   0.0201 270.4378 0001923 308.9004 309.1947  1.00269201 34779
INTELSAT 36 (IS-36)     
1 41747U 16053A   25342.50911696 -.00000022  00000+0  00000+0 0  9994
2 41747   0.0114 350.9630 0001378 324.2523  14.0801  1.00269810 34038
INTELSAT 32E (IS-32E)   
1 41945U 17007B   25342.41560302 -.00000266  00000+0  00000+0 0  9998
2 41945   0.0258  66.5377 0000279 242.4063 234.9251  1.00273553 32314
INTELSAT 35E (IS-35E)   
1 42818U 17041A   25342.41733637 -.00000236  00000+0  00000+0 0  9996
2 42818   0.0175 326.3080 0002342 297.6288 289.2347  1.00269498 30909
INTELSAT 37E (IS-37E)   
1 42950U 17059A   25342.42054306 -.00000138  00000+0  00000+0 0  9993
2 42950   0.0168   3.1652 0003411 250.2554 317.4037  1.00270747 30158
AZERSPACE 2 (IS-38)     
1 43632U 18074A   25342.57576404  .00000139  00000+0  00000+0 0  9993
2 43632   0.0177 335.2982 0001580 282.8901  71.7785  1.00269934 26536
HORIZONS-3E             
1 43633U 18074B   25342.61016972 -.00000029  00000+0  00000+0 0  9997
2 43633   0.0425 176.8532 0001330 113.5784 175.8576  1.00267707 26434
AT&T T-16               
1 44333U 19034A   25342.54681719 -.00000113  00000+0  00000+0 0  9995
2 44333   0.0225  59.1349 0000782 120.0690 354.3499  1.00273465 23723
INTELSAT 39 (IS-39)     
1 44476U 19049B   25342.43640315  .00000036  00000+0  00000+0 0  9997
2 44476   0.0178 326.9811 0000875 187.7371 141.7767  1.00270315 23217
GALAXY 30 (G-30)        
1 46114U 20056C   25342.54670983  .00000039  00000+0  00000+0 0  9997
2 46114   0.0164 353.8278 0002417 263.3172 252.2177  1.00271158 19385
GALAXY 33 (G-33)        
1 54026U 22128A   25342.50243756  .00000081  00000+0  00000+0 0  9997
2 54026   0.0164 301.4781 0002271 308.6459 235.2621  1.00271660 11838
GALAXY 34 (G-34)        
1 54027U 22128B   25342.50346103  .00000000  00000+0  00000+0 0  9999
2 54027   0.0269 317.8338 0001291 287.9468 244.0411  1.00270185 12000
GALAXY 31 (G-31)        
1 54243U 22153A   25342.58336517  .00000015  00000+0  00000+0 0  9999
2 54243   0.0214 257.6289 0001913  11.9169 257.0556  1.00271343  5227
GALAXY 32 (G-32)        
1 54244U 22153B   25342.51900575 -.00000172  00000+0  00000+0 0  9999
2 54244   0.0093 341.4541 0002713 326.1977 225.7141  1.00270602 11230
GALAXY 35 (G-35)        
1 54741U 22170A   25342.51957071 -.00000160  00000+0  00000+0 0  9990
2 54741   0.0182  72.8390 0002679 191.2736 267.3706  1.00271051 10982
GALAXY 36 (G-36)        
1 54742U 22170B   25342.52069762 -.00000183  00000+0  00000+0 0  9998
2 54742   0.0090  15.0220 0000586 268.7828 252.1699  1.00270893 10862
GALAXY 37 (G-37)        
1 57493U 23112A   25342.50415675  .00000050  00000+0  00000+0 0  9999
2 57493   0.0102 325.4771 0002370 297.2918 229.2399  1.00271243  8635
